STARLINK-30787          
1 58128U 23162L   26196.18690092 -.00002857  00000+0 -94312-4 0  9993
2 58128  43.0062 129.2554 0001662 265.6534  94.4128 15.27586135151845
STARLINK-30756          
1 58129U 23162M   26196.82356466 -.00000103  00000+0  57669-5 0  9995
2 58129  43.0022 128.8359 0001494 254.9988 105.0698 15.27587908151904
STARLINK-30783          
1 58130U 23162N   26196.83434076  .00000566  00000+0  30076-4 0  9996
2 58130  43.0007 125.5195 0000973 269.0005  91.0735 15.27576294151945
STARLINK-30757          
1 58131U 23162P   26196.83048543  .00000569  00000+0  30201-4 0  9990
2 58131  42.9997 125.4897 0000761 271.5871  88.4893 15.27575803151944
STARLINK-30770          
1 58132U 23162Q   26196.82998891  .00000766  00000+0  37365-4 0  9997
2 58132  43.0008 128.8745 0001042 274.9016  85.1717 15.27576160151890
STARLINK-30758          
1 58133U 23162R   26196.83561877  .00001451  00000+0  62241-4 0  9992
2 58133  43.0031 125.5326 0001799 288.7569  71.3087 15.27580304151949
STARLINK-30761          
1 58134U 23162S   26196.83386852 -.00016431  00000+0 -58734-3 0  9998
2 58134  43.0042 128.9045 0001608 289.7650  70.3028 15.27664625151907
STARLINK-30772          
1 58135U 23162T   26196.88379722  .00003091  00000+0  12176-3 0  9998
2 58135  43.0032 128.4299 0001875 259.7036 100.3604 15.27593697151919
STARLINK-30776          
1 58136U 23162U   26196.17519111  .00082171  00000+0  15937-2 0  9992
2 58136  42.9914 122.9678 0017975 188.5103 171.5453 15.46543401151910
STARLINK-30782          
1 58137U 23162V   26196.18255021 -.00000857  00000+0 -21622-4 0  9994
2 58137  43.0029 132.6270 0001381 257.8264 102.2433 15.27577417151808
STARLINK-30769          
1 58138U 23162W   26196.80171546  .00001816  00000+0  75511-4 0  9993
2 58138  43.0040 128.6783 0001313 264.5164  95.5538 15.27575385151908
STARLINK-30775          
1 58139U 23162X   26196.86325202  .00000535  00000+0  28978-4 0  9992
2 58139  43.0046 128.2871 0001199 277.7435  82.3281 15.27579955151915
STARLINK-30780          
1 58140U 23162Y   26196.21966796  .00000450  00000+0  25861-4 0  9996
2 58140  43.0023 132.0474 0001076 277.1511  82.9219 15.27576992151811
YAOGAN-39 04A           
1 58141U 23163A   26196.94641280  .00004146  00000+0  17359-3 0  9994
2 58141  34.9992 163.8791 0006326 267.0758  92.9232 15.22973333151961
YAOGAN-39 04B           
1 58143U 23163C   26197.00234294  .00001974  00000+0  96558-4 0  9992
2 58143  34.9921 189.0334 0003367 172.7828 187.2934 15.17985310151699
YAOGAN-39 04C           
1 58145U 23163E   26196.99790736  .00001989  00000+0  97135-4 0  9997
2 58145  34.9891 188.8417 0007697 290.1293  69.8592 15.18017626151701
COSMOS 2570             
1 58148U 23165A   26196.90312506 -.00000047  00000+0  20555-4 0  9995
2 58148  67.1472 219.6375 0007137 273.6556  86.3712 13.96673659138644
STARLINK-30802          
1 58150U 23166A   26196.88085583  .00001383  00000+0  56343-4 0  9995
2 58150  53.1617 343.6231 0000795  90.4821 269.6272 15.31687220152817
STARLINK-30834          
1 58151U 23166B   26196.44165513  .00008898  00000+0  31206-3 0  9998
2 58151  53.1599 346.3573 0001629 106.7660 253.3520 15.30212247152734
STARLINK-30833          
1 58152U 23166C   26196.44742331 -.00005085  00000+0 -15213-3 0  9995
2 58152  53.1613 345.8934 0001417 108.8493 251.2663 15.31714094152743
STARLINK-30831          
1 58153U 23166D   26196.76433517  .00000947  00000+0  42280-4 0  9999
2 58153  53.1616 344.3321 0001295  90.5815 269.5335 15.31711207152796
STARLINK-30797          
1 58154U 23166E   26196.44482293 -.00004387  00000+0 -13602-3 0  9999
2 58154  53.1624 346.3696 0001414 101.4399 258.6760 15.30209476152582
STARLINK-30804          
1 58155U 23166F   26196.82025253 -.00000216  00000+0  48143-5 0  9997
2 58155  53.1617 343.9654 0000968  83.6466 276.4646 15.31707058152807
STARLINK-30784          
1 58156U 23166G   26196.69978289  .00000002  00000+0  12200-4 0  9995
2 58156  53.1629 345.3354 0000859  89.5651 270.5448 15.30193724152627
STARLINK-30803          
1 58157U 23166H   26196.92274733  .00001097  00000+0  47103-4 0  9990
2 58157  53.1622 343.1670 0000961 106.5681 253.5426 15.31704639152671
STARLINK-30829          
1 58158U 23166J   26196.82492426 -.00000448  00000+0 -26678-5 0  9997
2 58158  53.1617 343.9936 0001114  94.0798 266.0331 15.31704232152808
STARLINK-30788          
1 58159U 23166K   26196.81091762  .00001610  00000+0  63618-4 0  9999
2 58159  53.1619 343.9066 0000923  85.6530 274.4577 15.31708405152656
STARLINK-30779          
1 58160U 23166L   26196.80625218  .00000635  00000+0  32218-4 0  9997
2 58160  53.1619 343.8823 0000940  68.3309 291.7792 15.31700489152801
STARLINK-30773          
1 58161U 23166M   26196.73238924  .00000467  00000+0  27912-4 0  9992
2 58161  53.1632 344.8224 0001273  68.3071 291.8065 15.30186807152781
STARLINK-30816          
1 58162U 23166N   26196.72922497 -.00000415  00000+0 -18949-5 0  9993
2 58162  53.1620 344.8216 0001282  55.9860 304.1262 15.30186075152782
