OBJECT_NAME,OBJECT_ID,EPOCH,MEAN_MOTION,ECCENTRICITY,INCLINATION,RA_OF_ASC_NODE,ARG_OF_PERICENTER,MEAN_ANOMALY,EPHEMERIS_TYPE,CLASSIFICATION_TYPE,NORAD_CAT_ID,ELEMENT_SET_NO,REV_AT_EPOCH,BSTAR,MEAN_MOTION_DOT,MEAN_MOTION_DDOT
STARLINK-30787,2023-162L,2026-07-15T04:29:08.239488,15.27586135,.00016621,43.0062,129.2554,265.6534,94.4128,0,U,58128,999,15184,-.94312214E-4,-.2857E-4,0
STARLINK-30756,2023-162M,2026-07-15T19:45:55.986624,15.27587908,.00014949,43.0022,128.8359,254.9988,105.0698,0,U,58129,999,15190,.5766859E-5,-.103E-5,0
STARLINK-30783,2023-162N,2026-07-15T20:01:27.041664,15.27576294,.00009737,43.0007,125.5195,269.0005,91.0735,0,U,58130,999,15194,.30075582E-4,.566E-5,0
STARLINK-30757,2023-162P,2026-07-15T19:55:53.941152,15.27575803,.00007619,42.9997,125.4897,271.5871,88.4893,0,U,58131,999,15194,.30200746E-4,.569E-5,0
STARLINK-30770,2023-162Q,2026-07-15T19:55:11.041824,15.27576160,.00010422,43.0008,128.8745,274.9016,85.1717,0,U,58132,999,15189,.37364612E-4,.766E-5,0
STARLINK-30758,2023-162R,2026-07-15T20:03:17.461728,15.27580304,.00017992,43.0031,125.5326,288.7569,71.3087,0,U,58133,999,15194,.62241396E-4,.1451E-4,0
STARLINK-30761,2023-162S,2026-07-15T20:00:46.240128,15.27664625,.00016082,43.0042,128.9045,289.7650,70.3028,0,U,58134,999,15190,-.58734278E-3,-.16431E-3,0
STARLINK-30772,2023-162T,2026-07-15T21:12:40.079808,15.27593697,.0001875,43.0032,128.4299,259.7036,100.3604,0,U,58135,999,15191,.12176053E-3,.3091E-4,0
STARLINK-30776,2023-162U,2026-07-15T04:12:16.511904,15.46543401,.00179759,42.9914,122.9678,188.5103,171.5453,0,U,58136,999,15191,.15936723E-2,.82171E-3,0
STARLINK-30782,2023-162V,2026-07-15T04:22:52.338144,15.27577417,.00013813,43.0029,132.6270,257.8264,102.2433,0,U,58137,999,15180,-.21622202E-4,-.857E-5,0
STARLINK-30769,2023-162W,2026-07-15T19:14:28.215744,15.27575385,.00013131,43.0040,128.6783,264.5164,95.5538,0,U,58138,999,15190,.75510907E-4,.1816E-4,0
STARLINK-30775,2023-162X,2026-07-15T20:43:04.974528,15.27579955,.00011998,43.0046,128.2871,277.7435,82.3281,0,U,58139,999,15191,.28978439E-4,.535E-5,0
STARLINK-30780,2023-162Y,2026-07-15T05:16:19.311744,15.27576992,.00010761,43.0023,132.0474,277.1511,82.9219,0,U,58140,999,15181,.25860977E-4,.45E-5,0
YAOGAN-39 04A,2023-163A,2026-07-15T22:42:50.065920,15.22973333,.00063266,34.9992,163.8791,267.0758,92.9232,0,U,58141,999,15196,.17359469E-3,.4146E-4,0
YAOGAN-39 04B,2023-163C,2026-07-16T00:03:22.430016,15.17985310,.00033673,34.9921,189.0334,172.7828,187.2934,0,U,58143,999,15169,.96558047E-4,.1974E-4,0
YAOGAN-39 04C,2023-163E,2026-07-15T23:56:59.195904,15.18017626,.0007697,34.9891,188.8417,290.1293,69.8592,0,U,58145,999,15170,.97134662E-4,.1989E-4,0
COSMOS 2570,2023-165A,2026-07-15T21:40:30.005184,13.96673659,.00071376,67.1472,219.6375,273.6556,86.3712,0,U,58148,999,13864,.20554603E-4,-.47E-6,0
STARLINK-30802,2023-166A,2026-07-15T21:08:25.943712,15.31687220,.00007953,53.1617,343.6231,90.4821,269.6272,0,U,58150,999,15281,.56342564E-4,.1383E-4,0
STARLINK-30834,2023-166B,2026-07-15T10:35:59.003232,15.30212247,.00016296,53.1599,346.3573,106.7660,253.3520,0,U,58151,999,15273,.3120573E-3,.8898E-4,0
STARLINK-30833,2023-166C,2026-07-15T10:44:17.373984,15.31714094,.00014176,53.1613,345.8934,108.8493,251.2663,0,U,58152,999,15274,-.15213181E-3,-.5085E-4,0
STARLINK-30831,2023-166D,2026-07-15T18:20:38.558688,15.31711207,.00012957,53.1616,344.3321,90.5815,269.5335,0,U,58153,999,15279,.42279686E-4,.947E-5,0
STARLINK-30797,2023-166E,2026-07-15T10:40:32.701152,15.30209476,.00014149,53.1624,346.3696,101.4399,258.6760,0,U,58154,999,15258,-.13602258E-3,-.4387E-4,0
STARLINK-30804,2023-166F,2026-07-15T19:41:09.818592,15.31707058,.00009684,53.1617,343.9654,83.6466,276.4646,0,U,58155,999,15280,.4814293E-5,-.216E-5,0
STARLINK-30784,2023-166G,2026-07-15T16:47:41.241696,15.30193724,.0000859,53.1629,345.3354,89.5651,270.5448,0,U,58156,999,15262,.12199823E-4,.2E-7,0
STARLINK-30803,2023-166H,2026-07-15T22:08:45.369312,15.31704639,.00009614,53.1622,343.1670,106.5681,253.5426,0,U,58157,999,15267,.47103401E-4,.1097E-4,0
STARLINK-30829,2023-166J,2026-07-15T19:47:53.456064,15.31704232,.00011141,53.1617,343.9936,94.0798,266.0331,0,U,58158,999,15280,-.266785E-5,-.448E-5,0
STARLINK-30788,2023-166K,2026-07-15T19:27:43.282368,15.31708405,.00009239,53.1619,343.9066,85.6530,274.4577,0,U,58159,999,15265,.63617756E-4,.161E-4,0
STARLINK-30779,2023-166L,2026-07-15T19:21:00.188352,15.31700489,.00009402,53.1619,343.8823,68.3309,291.7792,0,U,58160,999,15280,.32217956E-4,.635E-5,0
STARLINK-30773,2023-166M,2026-07-15T17:34:38.430336,15.30186807,.00012738,53.1632,344.8224,68.3071,291.8065,0,U,58161,999,15278,.2791241E-4,.467E-5,0
STARLINK-30816,2023-166N,2026-07-15T17:30:05.037408,15.30186075,.00012821,53.1620,344.8216,55.9860,304.1262,0,U,58162,999,15278,-.1894912E-5,-.415E-5,0
